{"type": "FeatureCollection", "features": [ {"type": "Feature", "properties": {"norad_id": 33939, "name": "COSMOS 2251 DEB", "group": "cosmos-2251-debris", "lat": -47.709484562021906, "lon": -66.49842147042493, "alt_km": 577.321951392988, "timestamp": "2025-12-05T14:45:15.690650+00:00", "meta": {"OBJECT_NAME": "COSMOS 2251 DEB", "OBJECT_ID": "1993-036EU", "EPOCH": "2025-12-04T08:53:55.536288", "MEAN_MOTION": 14.98843864, "ECCENTRICITY": 0.0003071, "INCLINATION": 74.0073, "RA_OF_ASC_NODE": 97.6502, "ARG_OF_PERICENTER": 110.2484, "MEAN_ANOMALY": 249.9033, "EPHEMERIS_TYPE": 0, "CLASSIFICATION_TYPE": "U", "NORAD_CAT_ID": 33939, "ELEMENT_SET_NO": 999, "REV_AT_EPOCH": 88627, "BSTAR": 0.0084747, "MEAN_MOTION_DOT": 0.00103812, "MEAN_MOTION_DDOT": 0}, "tle": {"line1": "1 33939U 93036EU  25338.37078167  .00103812  00000+0  84747-2 0  9994", "line2": "2 33939  74.0073  97.6502 0003071 110.2484 249.9033 14.98843864886276"}}, "geometry": {"type": "Point", "coordinates": [-66.49842147042493, -47.709484562021906]}}, {"type": "Feature", "properties": {"norad_id": 33940, "name": "COSMOS 2251 DEB", "group": "cosmos-2251-debris", "lat": -34.322484168230204, "lon": 145.79381021257655, "alt_km": 703.0292416549873, "timestamp": "2025-12-05T14:45:15.690661+00:00", "meta": {"OBJECT_NAME": "COSMOS 2251 DEB", "OBJECT_ID": "1993-036EV", "EPOCH": "2025-12-04T06:48:29.393856", "MEAN_MOTION": 14.58663589, "ECCENTRICITY": 0.0011684, "INCLINATION": 74.0382, "RA_OF_ASC_NODE": 159.5954, "ARG_OF_PERICENTER": 238.6516, "MEAN_ANOMALY": 298.3953, "EPHEMERIS_TYPE": 0, "CLASSIFICATION_TYPE": "U", "NORAD_CAT_ID": 33940, "ELEMENT_SET_NO": 999, "REV_AT_EPOCH": 88470, "BSTAR": 0.0023268, "MEAN_MOTION_DOT": 0.00010844, "MEAN_MOTION_DDOT": 0}, "tle": {"line1": "1 33940U 93036EV  25338.28367354  .00010844  00000+0  23268-2 0  9998", "line2": "2 33940  74.0382 159.5954 0011684 238.6516 298.3953 14.58663589884705"}}, "geometry": {"type": "Point", "coordinates": [145.79381021257655, -34.322484168230204]}}, {"type": "Feature", "properties": {"norad_id": 33942, "name": "COSMOS 2251 DEB", "group": "cosmos-2251-debris", "lat": -25.88216336391244, "lon": -80.0322658881655, "alt_km": 759.5235489846218, "timestamp": "2025-12-05T14:45:15.690671+00:00", "meta": {"OBJECT_NAME": "COSMOS 2251 DEB", "OBJECT_ID": "1993-036EX", "EPOCH": "2025-12-04T14:38:12.374880", "MEAN_MOTION": 14.37969538, "ECCENTRICITY": 0.0019942, "INCLINATION": 74.0361, "RA_OF_ASC_NODE": 289.801, "ARG_OF_PERICENTER": 14.8872, "MEAN_ANOMALY": 158.3993, "EPHEMERIS_TYPE": 0, "CLASSIFICATION_TYPE": "U", "NORAD_CAT_ID": 33942, "ELEMENT_SET_NO": 999, "REV_AT_EPOCH": 88017, "BSTAR": 0.00046709, "MEAN_MOTION_DOT": 1.389e-05, "MEAN_MOTION_DDOT": 0}, "tle": {"line1": "1 33942U 93036EX  25338.60986545  .00001389  00000+0  46709-3 0  9995", "line2": "2 33942  74.0361 289.8010 0019942  14.8872 158.3993 14.37969538880174"}}, "geometry": {"type": "Point", "coordinates": [-80.0322658881655, -25.88216336391244]}}, {"type": "Feature", "properties": {"norad_id": 33944, "name": "COSMOS 2251 DEB", "group": "cosmos-2251-debris", "lat": -42.711591711882555, "lon": 157.3542057324822, "alt_km": 849.2943584892928, "timestamp": "2025-12-05T14:45:15.690682+00:00", "meta": {"OBJECT_NAME": "COSMOS 2251 DEB", "OBJECT_ID": "1993-036EZ", "EPOCH": "2025-12-04T10:00:43.683264", "MEAN_MOTION": 14.37316315, "ECCENTRICITY": 0.0111938, "INCLINATION": 74.04, "RA_OF_ASC_NODE": 324.2382, "ARG_OF_PERICENTER": 66.0363, "MEAN_ANOMALY": 84.0711, "EPHEMERIS_TYPE": 0, "CLASSIFICATION_TYPE": "U", "NORAD_CAT_ID": 33944, "ELEMENT_SET_NO": 999, "REV_AT_EPOCH": 87908, "BSTAR": 0.0005415, "MEAN_MOTION_DOT": 1.71e-05, "MEAN_MOTION_DDOT": 0}, "tle": {"line1": "1 33944U 93036EZ  25338.41717226  .00001710  00000+0  54150-3 0  9991", "line2": "2 33944  74.0400 324.2382 0111938  66.0363  84.0711 14.37316315879088"}}, "geometry": {"type": "Point", "coordinates": [157.3542057324822, -42.711591711882555]}}, {"type": "Feature", "properties": {"norad_id": 33945, "name": "COSMOS 2251 DEB", "group": "cosmos-2251-debris", "lat": 73.81697796986307, "lon": 40.00702619015432, "alt_km": 757.0667656509759, "timestamp": "2025-12-05T14:45:15.690692+00:00", "meta": {"OBJECT_NAME": "COSMOS 2251 DEB", "OBJECT_ID": "1993-036FA", "EPOCH": "2025-12-04T09:53:54.700224", "MEAN_MOTION": 14.34590373, "ECCENTRICITY": 0.0021599, "INCLINATION": 74.0293, "RA_OF_ASC_NODE": 321.5265, "ARG_OF_PERICENTER": 50.4453, "MEAN_ANOMALY": 309.8603, "EPHEMERIS_TYPE": 0, "CLASSIFICATION_TYPE": "U", "NORAD_CAT_ID": 33945, "ELEMENT_SET_NO": 999, "REV_AT_EPOCH": 87896, "BSTAR": 0.00026085, "MEAN_MOTION_DOT": 7.13e-06, "MEAN_MOTION_DDOT": 0}, "tle": {"line1": "1 33945U 93036FA  25338.41243866  .00000713  00000+0  26085-3 0  9994", "line2": "2 33945  74.0293 321.5265 0021599  50.4453 309.8603 14.34590373878968"}}, "geometry": {"type": "Point", "coordinates": [40.00702619015432, 73.81697796986307]}}, {"type": "Feature", "properties": {"norad_id": 33948, "name": "COSMOS 2251 DEB", "group": "cosmos-2251-debris", "lat": -74.02287039156826, "lon": -132.83944350269903, "alt_km": 789.4720792459384, "timestamp": "2025-12-05T14:45:15.690702+00:00", "meta": {"OBJECT_NAME": "COSMOS 2251 DEB", "OBJECT_ID": "1993-036FD", "EPOCH": "2025-12-04T00:42:29.692512", "MEAN_MOTION": 14.35613003, "ECCENTRICITY": 0.00223705, "INCLINATION": 74.0352, "RA_OF_ASC_NODE": 321.116, "ARG_OF_PERICENTER": 39.4809, "MEAN_ANOMALY": 320.7968, "EPHEMERIS_TYPE": 0, "CLASSIFICATION_TYPE": "U", "NORAD_CAT_ID": 33948, "ELEMENT_SET_NO": 999, "REV_AT_EPOCH": 87898, "BSTAR": 0.00035496193, "MEAN_MOTION_DOT": 1e-05, "MEAN_MOTION_DDOT": 0}, "tle": {"line1": "1 33948U 93036FD  25338.02951033  .00001000  00000+0  35496-3 0  9992", "line2": "2 33948  74.0352 321.1160 0022370  39.4809 320.7968 14.35613003878982"}}, "geometry": {"type": "Point", "coordinates": [-132.83944350269903, -74.02287039156826]}}, {"type": "Feature", "properties": {"norad_id": 33971, "name": "COSMOS 2251 DEB", "group": "cosmos-2251-debris", "lat": -49.9652542347658, "lon": 106.83715936801661, "alt_km": 775.3164645394882, "timestamp": "2025-12-05T14:45:15.690712+00:00", "meta": {"OBJECT_NAME": "COSMOS 2251 DEB", "OBJECT_ID": "1993-036FE", "EPOCH": "2025-12-04T13:27:27.897984", "MEAN_MOTION": 14.39701116, "ECCENTRICITY": 0.001815, "INCLINATION": 74.0249, "RA_OF_ASC_NODE": 268.8483, "ARG_OF_PERICENTER": 10.8879, "MEAN_ANOMALY": 161.2357, "EPHEMERIS_TYPE": 0, "CLASSIFICATION_TYPE": "U", "NORAD_CAT_ID": 33971, "ELEMENT_SET_NO": 999, "REV_AT_EPOCH": 88021, "BSTAR": 0.0005898, "MEAN_MOTION_DOT": 1.824e-05, "MEAN_MOTION_DDOT": 0}, "tle": {"line1": "1 33971U 93036FE  25338.56073956  .00001824  00000+0  58980-3 0  9993", "line2": "2 33971  74.0249 268.8483 0018150  10.8879 161.2357 14.39701116880215"}}, "geometry": {"type": "Point", "coordinates": [106.83715936801661, -49.9652542347658]}}, {"type": "Feature", "properties": {"norad_id": 33972, "name": "COSMOS 2251 DEB", "group": "cosmos-2251-debris", "lat": -71.1845275009205, "lon": 81.18017120545935, "alt_km": 811.8186990492177, "timestamp": "2025-12-05T14:45:15.690723+00:00", "meta": {"OBJECT_NAME": "COSMOS 2251 DEB", "OBJECT_ID": "1993-036FF", "EPOCH": "2025-12-04T09:56:51.706176", "MEAN_MOTION": 14.36133138, "ECCENTRICITY": 0.0122984, "INCLINATION": 73.9946, "RA_OF_ASC_NODE": 205.9942, "ARG_OF_PERICENTER": 15.605, "MEAN_ANOMALY": 162.5803, "EPHEMERIS_TYPE": 0, "CLASSIFICATION_TYPE": "U", "NORAD_CAT_ID": 33972, "ELEMENT_SET_NO": 999, "REV_AT_EPOCH": 86954, "BSTAR": 0.0026334, "MEAN_MOTION_DOT": 8.346e-05, "MEAN_MOTION_DDOT": 0}, "tle": {"line1": "1 33972U 93036FF  25338.41448734  .00008346  00000+0  26334-2 0  9991", "line2": "2 33972  73.9946 205.9942 0122984  15.6050 162.5803 14.36133138869548"}}, "geometry": {"type": "Point", "coordinates": [81.18017120545935, -71.1845275009205]}}, {"type": "Feature", "properties": {"norad_id": 33973, "name": "COSMOS 2251 DEB", "group": "cosmos-2251-debris", "lat": 41.741079540706956, "lon": -78.63050221048148, "alt_km": 768.5519188502449, "timestamp": "2025-12-05T14:45:15.690735+00:00", "meta": {"OBJECT_NAME": "COSMOS 2251 DEB", "OBJECT_ID": "1993-036FG", "EPOCH": "2025-12-04T16:35:57.994080", "MEAN_MOTION": 14.45377025, "ECCENTRICITY": 0.0047166, "INCLINATION": 74.0073, "RA_OF_ASC_NODE": 117.919, "ARG_OF_PERICENTER": 297.833, "MEAN_ANOMALY": 77.0505, "EPHEMERIS_TYPE": 0, "CLASSIFICATION_TYPE": "U", "NORAD_CAT_ID": 33973, "ELEMENT_SET_NO": 999, "REV_AT_EPOCH": 88484, "BSTAR": 0.00028109, "MEAN_MOTION_DOT": 9.74e-06, "MEAN_MOTION_DDOT": 0}, "tle": {"line1": "1 33973U 93036FG  25338.69164345  .00000974  00000+0  28109-3 0  9997", "line2": "2 33973  74.0073 117.9190 0047166 297.8330  77.0505 14.45377025884846"}}, "geometry": {"type": "Point", "coordinates": [-78.63050221048148, 41.741079540706956]}}, {"type": "Feature", "properties": {"norad_id": 33975, "name": "COSMOS 2251 DEB", "group": "cosmos-2251-debris", "lat": 33.36317538374412, "lon": -94.05724681378156, "alt_km": 877.1423659193797, "timestamp": "2025-12-05T14:45:15.690746+00:00", "meta": {"OBJECT_NAME": "COSMOS 2251 DEB", "OBJECT_ID": "1993-036FJ", "EPOCH": "2025-12-04T14:02:42.296064", "MEAN_MOTION": 14.00495913, "ECCENTRICITY": 0.0191456, "INCLINATION": 73.8012, "RA_OF_ASC_NODE": 98.7865, "ARG_OF_PERICENTER": 232.9205, "MEAN_ANOMALY": 125.4293, "EPHEMERIS_TYPE": 0, "CLASSIFICATION_TYPE": "U", "NORAD_CAT_ID": 33975, "ELEMENT_SET_NO": 999, "REV_AT_EPOCH": 85715, "BSTAR": 0.0012657, "MEAN_MOTION_DOT": 2.176e-05, "MEAN_MOTION_DDOT": 0}, "tle": {"line1": "1 33975U 93036FJ  25338.58521176  .00002176  00000+0  12657-2 0  9992", "line2": "2 33975  73.8012  98.7865 0191456 232.9205 125.4293 14.00495913857150"}}, "geometry": {"type": "Point", "coordinates": [-94.05724681378156, 33.36317538374412]}}]}